FENGYUN 1C DEB          
1 30346U 99025ABH 17345.69376403  .00000747  00000-0  40808-3 0  9990
2 30346  98.9508  41.4554 0075669 107.6411  23.1358 14.13605687559713
